{"type": "FeatureCollection", "features": [ {"type": "Feature", "properties": {"norad_id": 31211, "name": "FENGYUN 1C DEB", "group": "fengyun-1c-debris", "lat": 72.79843932074529, "lon": -128.67206125630162, "alt_km": 782.3522465788037, "timestamp": "2025-12-11T20:41:15.361922+00:00", "meta": {"OBJECT_NAME": "FENGYUN 1C DEB", "OBJECT_ID": "1999-025BKR", "EPOCH": "2025-12-06T20:08:03.397344", "MEAN_MOTION": 14.2001942, "ECCENTRICITY": 0.00510218, "INCLINATION": 98.6728, "RA_OF_ASC_NODE": 16.8654, "ARG_OF_PERICENTER": 106.1714, "MEAN_ANOMALY": 254.5086, "EPHEMERIS_TYPE": 0, "CLASSIFICATION_TYPE": "U", "NORAD_CAT_ID": 31211, "ELEMENT_SET_NO": 999, "REV_AT_EPOCH": 63209, "BSTAR": 0.001766209, "MEAN_MOTION_DOT": 3.766e-05, "MEAN_MOTION_DDOT": 0}, "tle": {"line1": "1 31211U 99025BKR 25340.83892821  .00003766  00000+0  17662-2 0  9993", "line2": "2 31211  98.6728  16.8654 0051021 106.1714 254.5086 14.20019420632092"}}, "geometry": {"type": "Point", "coordinates": [-128.67206125630162, 72.79843932074529]}}, {"type": "Feature", "properties": {"norad_id": 31212, "name": "FENGYUN 1C DEB", "group": "fengyun-1c-debris", "lat": 73.21122582291918, "lon": -130.1049811855538, "alt_km": 822.7234377218247, "timestamp": "2025-12-11T20:41:15.361933+00:00", "meta": {"OBJECT_NAME": "FENGYUN 1C DEB", "OBJECT_ID": "1999-025BKS", "EPOCH": "2025-11-25T01:25:48.692640", "MEAN_MOTION": 14.12981607, "ECCENTRICITY": 0.00745379, "INCLINATION": 99.223, "RA_OF_ASC_NODE": 0.0078, "ARG_OF_PERICENTER": 220.8092, "MEAN_ANOMALY": 138.7482, "EPHEMERIS_TYPE": 0, "CLASSIFICATION_TYPE": "U", "NORAD_CAT_ID": 31212, "ELEMENT_SET_NO": 999, "REV_AT_EPOCH": 95409, "BSTAR": 0.0015990818, "MEAN_MOTION_DOT": 3.014e-05, "MEAN_MOTION_DDOT": 0}, "tle": {"line1": "1 31212U 99025BKS 25329.05959135  .00003014  00000+0  15991-2 0  9996", "line2": "2 31212  99.2230   0.0078 0074537 220.8092 138.7482 14.12981607954099"}}, "geometry": {"type": "Point", "coordinates": [-130.1049811855538, 73.21122582291918]}}, {"type": "Feature", "properties": {"norad_id": 31215, "name": "FENGYUN 1C DEB", "group": "fengyun-1c-debris", "lat": 21.342059347143717, "lon": -173.69427381201, "alt_km": 750.2184729611172, "timestamp": "2025-12-11T20:41:15.361943+00:00", "meta": {"OBJECT_NAME": "FENGYUN 1C DEB", "OBJECT_ID": "1999-025BKV", "EPOCH": "2025-12-01T19:24:11.403648", "MEAN_MOTION": 14.33696459, "ECCENTRICITY": 0.00702274, "INCLINATION": 99.0744, "RA_OF_ASC_NODE": 179.3473, "ARG_OF_PERICENTER": 355.6358, "MEAN_ANOMALY": 4.4204, "EPHEMERIS_TYPE": 0, "CLASSIFICATION_TYPE": "U", "NORAD_CAT_ID": 31215, "ELEMENT_SET_NO": 999, "REV_AT_EPOCH": 96369, "BSTAR": 0.00097709666, "MEAN_MOTION_DOT": 2.74e-05, "MEAN_MOTION_DDOT": 0}, "tle": {"line1": "1 31215U 99025BKV 25335.80846532  .00002740  00000+0  97710-3 0  9990", "line2": "2 31215  99.0744 179.3473 0070227 355.6358   4.4204 14.33696459963691"}}, "geometry": {"type": "Point", "coordinates": [-173.69427381201, 21.342059347143717]}}, {"type": "Feature", "properties": {"norad_id": 31217, "name": "FENGYUN 1C DEB", "group": "fengyun-1c-debris", "lat": -47.39910111556953, "lon": 164.25474526739367, "alt_km": 810.0742777791575, "timestamp": "2025-12-11T20:41:15.361954+00:00", "meta": {"OBJECT_NAME": "FENGYUN 1C DEB", "OBJECT_ID": "1999-025BKX", "EPOCH": "2025-12-11T06:04:08.976288", "MEAN_MOTION": 14.17533133, "ECCENTRICITY": 0.00996226, "INCLINATION": 98.6409, "RA_OF_ASC_NODE": 353.1806, "ARG_OF_PERICENTER": 164.2918, "MEAN_ANOMALY": 196.1386, "EPHEMERIS_TYPE": 0, "CLASSIFICATION_TYPE": "U", "NORAD_CAT_ID": 31217, "ELEMENT_SET_NO": 999, "REV_AT_EPOCH": 96327, "BSTAR": 0.00084694913, "MEAN_MOTION_DOT": 1.763e-05, "MEAN_MOTION_DDOT": 0}, "tle": {"line1": "1 31217U 99025BKX 25345.25288167  .00001763  00000+0  84695-3 0  9998", "line2": "2 31217  98.6409 353.1806 0099622 164.2918 196.1386 14.17533133963279"}}, "geometry": {"type": "Point", "coordinates": [164.25474526739367, -47.39910111556953]}}, {"type": "Feature", "properties": {"norad_id": 31218, "name": "FENGYUN 1C DEB", "group": "fengyun-1c-debris", "lat": -48.84955753476823, "lon": 106.22018201848753, "alt_km": 659.661822207122, "timestamp": "2025-12-11T20:41:15.361965+00:00", "meta": {"OBJECT_NAME": "FENGYUN 1C DEB", "OBJECT_ID": "1999-025BKY", "EPOCH": "2025-12-11T06:14:01.538592", "MEAN_MOTION": 14.72352794, "ECCENTRICITY": 0.00116063, "INCLINATION": 98.8396, "RA_OF_ASC_NODE": 95.3082, "ARG_OF_PERICENTER": 38.7377, "MEAN_ANOMALY": 321.4658, "EPHEMERIS_TYPE": 0, "CLASSIFICATION_TYPE": "U", "NORAD_CAT_ID": 31218, "ELEMENT_SET_NO": 999, "REV_AT_EPOCH": 97061, "BSTAR": 0.0092014086, "MEAN_MOTION_DOT": 0.00058727, "MEAN_MOTION_DDOT": 0}, "tle": {"line1": "1 31218U 99025BKY 25345.25974003  .00058727  00000+0  92014-2 0  9995", "line2": "2 31218  98.8396  95.3082 0011606  38.7377 321.4658 14.72352794970612"}}, "geometry": {"type": "Point", "coordinates": [106.22018201848753, -48.84955753476823]}}, {"type": "Feature", "properties": {"norad_id": 31219, "name": "FENGYUN 1C DEB", "group": "fengyun-1c-debris", "lat": -3.5639550195251672, "lon": -3.726486747278749, "alt_km": 906.7701193948687, "timestamp": "2025-12-11T20:41:15.361975+00:00", "meta": {"OBJECT_NAME": "FENGYUN 1C DEB", "OBJECT_ID": "1999-025BKZ", "EPOCH": "2025-12-08T11:10:29.742528", "MEAN_MOTION": 14.13752894, "ECCENTRICITY": 0.00789844, "INCLINATION": 99.2851, "RA_OF_ASC_NODE": 352.1645, "ARG_OF_PERICENTER": 189.1751, "MEAN_ANOMALY": 170.7982, "EPHEMERIS_TYPE": 0, "CLASSIFICATION_TYPE": "U", "NORAD_CAT_ID": 31219, "ELEMENT_SET_NO": 999, "REV_AT_EPOCH": 95509, "BSTAR": 0.0022347754, "MEAN_MOTION_DOT": 4.308e-05, "MEAN_MOTION_DDOT": 0}, "tle": {"line1": "1 31219U 99025BKZ 25342.46562202  .00004308  00000+0  22348-2 0  9999", "line2": "2 31219  99.2851 352.1645 0078984 189.1751 170.7982 14.13752894955092"}}, "geometry": {"type": "Point", "coordinates": [-3.726486747278749, -3.5639550195251672]}}, {"type": "Feature", "properties": {"norad_id": 31222, "name": "FENGYUN 1C DEB", "group": "fengyun-1c-debris", "lat": -78.60681750729832, "lon": 104.509172873126, "alt_km": 688.1451031882716, "timestamp": "2025-12-11T20:41:15.361985+00:00", "meta": {"OBJECT_NAME": "FENGYUN 1C DEB", "OBJECT_ID": "1999-025BLC", "EPOCH": "2025-12-10T22:36:47.198880", "MEAN_MOTION": 14.97746404, "ECCENTRICITY": 0.0170602, "INCLINATION": 98.611, "RA_OF_ASC_NODE": 54.7317, "ARG_OF_PERICENTER": 75.4276, "MEAN_ANOMALY": 286.5795, "EPHEMERIS_TYPE": 0, "CLASSIFICATION_TYPE": "U", "NORAD_CAT_ID": 31222, "ELEMENT_SET_NO": 999, "REV_AT_EPOCH": 99957, "BSTAR": 0.00088776, "MEAN_MOTION_DOT": 0.00014012, "MEAN_MOTION_DDOT": 0}, "tle": {"line1": "1 31222U 99025BLC 25344.94221295  .00014012  00000+0  88776-3 0  9993", "line2": "2 31222  98.6110  54.7317 0170602  75.4276 286.5795 14.97746404999578"}}, "geometry": {"type": "Point", "coordinates": [104.509172873126, -78.60681750729832]}}, {"type": "Feature", "properties": {"norad_id": 31223, "name": "FENGYUN 1C DEB", "group": "fengyun-1c-debris", "lat": 47.10520044455307, "lon": -137.60570448084138, "alt_km": 791.9233129468203, "timestamp": "2025-12-11T20:41:15.361996+00:00", "meta": {"OBJECT_NAME": "FENGYUN 1C DEB", "OBJECT_ID": "1999-025BLD", "EPOCH": "2025-12-11T15:14:07.835424", "MEAN_MOTION": 13.77235069, "ECCENTRICITY": 0.02422778, "INCLINATION": 99.0053, "RA_OF_ASC_NODE": 232.0062, "ARG_OF_PERICENTER": 43.6986, "MEAN_ANOMALY": 318.3068, "EPHEMERIS_TYPE": 0, "CLASSIFICATION_TYPE": "U", "NORAD_CAT_ID": 31223, "ELEMENT_SET_NO": 999, "REV_AT_EPOCH": 92713, "BSTAR": 0.0034145871, "MEAN_MOTION_DOT": 4.164e-05, "MEAN_MOTION_DDOT": 0}, "tle": {"line1": "1 31223U 99025BLD 25345.63481291  .00004164  00000+0  34146-2 0  9993", "line2": "2 31223  99.0053 232.0062 0242277  43.6986 318.3068 13.77235069927138"}}, "geometry": {"type": "Point", "coordinates": [-137.60570448084138, 47.10520044455307]}}, {"type": "Feature", "properties": {"norad_id": 31224, "name": "FENGYUN 1C DEB", "group": "fengyun-1c-debris", "lat": 81.00866301474494, "lon": -133.71044211229056, "alt_km": 751.7768767928646, "timestamp": "2025-12-11T20:41:15.362006+00:00", "meta": {"OBJECT_NAME": "FENGYUN 1C DEB", "OBJECT_ID": "1999-025BLE", "EPOCH": "2025-12-07T05:24:06.867936", "MEAN_MOTION": 14.28881555, "ECCENTRICITY": 0.01576901, "INCLINATION": 98.3695, "RA_OF_ASC_NODE": 333.3388, "ARG_OF_PERICENTER": 179.1537, "MEAN_ANOMALY": 197.3036, "EPHEMERIS_TYPE": 0, "CLASSIFICATION_TYPE": "U", "NORAD_CAT_ID": 31224, "ELEMENT_SET_NO": 999, "REV_AT_EPOCH": 69172, "BSTAR": 0.00051563663, "MEAN_MOTION_DOT": 1.444e-05, "MEAN_MOTION_DDOT": 0}, "tle": {"line1": "1 31224U 99025BLE 25341.22507949  .00001444  00000+0  51564-3 0  9996", "line2": "2 31224  98.3695 333.3388 0157690 179.1537 197.3036 14.28881555691727"}}, "geometry": {"type": "Point", "coordinates": [-133.71044211229056, 81.00866301474494]}}, {"type": "Feature", "properties": {"norad_id": 31225, "name": "FENGYUN 1C DEB", "group": "fengyun-1c-debris", "lat": -14.292360938887809, "lon": -123.23434309282827, "alt_km": 896.67009579964, "timestamp": "2025-12-11T20:41:15.362016+00:00", "meta": {"OBJECT_NAME": "FENGYUN 1C DEB", "OBJECT_ID": "1999-025BLF", "EPOCH": "2025-12-11T11:23:03.175584", "MEAN_MOTION": 14.17849206, "ECCENTRICITY": 0.00881088, "INCLINATION": 98.9892, "RA_OF_ASC_NODE": 58.6845, "ARG_OF_PERICENTER": 355.042, "MEAN_ANOMALY": 22.1521, "EPHEMERIS_TYPE": 0, "CLASSIFICATION_TYPE": "U", "NORAD_CAT_ID": 31225, "ELEMENT_SET_NO": 999, "REV_AT_EPOCH": 95804, "BSTAR": 0.0020976243, "MEAN_MOTION_DOT": 4.407e-05, "MEAN_MOTION_DDOT": 0}, "tle": {"line1": "1 31225U 99025BLF 25345.47434231  .00004407  00000+0  20976-2 0  9995", "line2": "2 31225  98.9892  58.6845 0088108 355.0420  22.1521 14.17849206958041"}}, "geometry": {"type": "Point", "coordinates": [-123.23434309282827, -14.292360938887809]}}]}